{
    "links": {
        "self": "http://www.neowsapp.com/rest/v1/neo/3551476?api_key=iIulBulltgU6a56xZRHN4H3l9WmuAYTsLGpBGhQ2"
    },
    "id": "3551476",
    "neo_reference_id": "3551476",
    "name": "(2010 VM139)",
    "designation": "2010 VM139",
    "nasa_jpl_url": "http://ssd.jpl.nasa.gov/sbdb.cgi?sstr=3551476",
    "absolute_magnitude_h": 25.4,
    "estimated_diameter": {
        "kilometers": {
            "estimated_diameter_min": 0.022108281,
            "estimated_diameter_max": 0.0494356193
        },
        "meters": {
            "estimated_diameter_min": 22.1082810359,
            "estimated_diameter_max": 49.435619262
        },
        "miles": {
            "estimated_diameter_min": 0.0137374447,
            "estimated_diameter_max": 0.0307178602
        },
        "feet": {
            "estimated_diameter_min": 72.5337327539,
            "estimated_diameter_max": 162.1903570994
        }
    },
    "is_potentially_hazardous_asteroid": false,
    "close_approach_data": [
        {
            "close_approach_date": "2010-11-10",
            "close_approach_date_full": "2010-Nov-10 07:19",
            "epoch_date_close_approach": 1289373540000,
            "relative_velocity": {
                "kilometers_per_second": "6.9745889215",
                "kilometers_per_hour": "25108.5201172721",
                "miles_per_hour": "15601.4579584239"
            },
            "miss_distance": {
                "astronomical": "0.0291721502",
                "lunar": "11.3479664278",
                "kilometers": "4364091.533240074",
                "miles": "2711720.7345940612"
            },
            "orbiting_body": "Earth"
        }
    ],
    "orbital_data": {
        "orbit_id": "7",
        "orbit_determination_date": "2017-04-06 08:55:43",
        "first_observation_date": "2010-11-14",
        "last_observation_date": "2010-11-14",
        "data_arc_in_days": null,
        "observations_used": 17,
        "orbit_uncertainty": "8",
        "minimum_orbit_intersection": ".01017",
        "jupiter_tisserand_invariant": "4.666",
        "epoch_osculation": "2455514.5",
        "eccentricity": ".2914168683153593",
        "semi_major_axis": "1.412602885324848",
        "inclination": "9.904276947652257",
        "ascending_node_longitude": "43.35634780384529",
        "orbital_period": "613.2372964939697",
        "perihelion_distance": "1.00094657631024",
        "perihelion_argument": "355.0914632185469",
        "aphelion_distance": "1.824259194339455",
        "perihelion_time": "2455503.815505322936",
        "mean_anomaly": "6.272315962734116",
        "mean_motion": ".5870484428429413",
        "equinox": "J2000",
        "orbit_class": {
            "orbit_class_type": "APO",
            "orbit_class_description": "Near-Earth asteroid orbits which cross the Earth’s orbit similar to that of 1862 Apollo",
            "orbit_class_range": "a (semi-major axis) > 1.0 AU; q (perihelion) < 1.017 AU"
        }
    },
    "is_sentry_object": false
}